0 DELTA 1 DEB
1 08314U 72058EG  13281.83987402  .00001309  00000-0  19980-3 0  4217
2 08314 098.3836 223.2666 0103271 270.2786 149.2874 14.72242884183366
0 DELTA 1 DEB
1 08314U 72058EG  13282.86128861  .00001196  00000-0  18326-3 0  4225
2 08314 098.3837 224.3199 0103274 267.0032 162.9066 14.72251160183510
0 DELTA 1 DEB
1 08314U 72058EG  13284.08319799  .00001587  00000-0  24014-3 0  4239
2 08314 098.3840 225.5800 0103299 263.0890 159.1984 14.72254789183697
0 DELTA 1 DEB
1 08314U 72058EG  13286.40513631  .00001266  00000-0  19338-3 0  4257
2 08314 098.3846 227.9743 0103324 255.6521 225.8454 14.72261969184032
0 DELTA 1 DEB
1 08314U 72058EG  13287.42503412  .00001483  00000-0  22486-3 0  4266
2 08314 098.3849 229.0259 0103357 252.3855 231.4902 14.72265122184182
0 DELTA 1 DEB
1 08314U 72058EG  13288.44359060  .00002541  00000-0  37883-3 0  4271
2 08314 098.3844 230.0760 0103292 249.2163 229.9527 14.72269662184336
0 DELTA 1 DEB
1 08314U 72058EG  13289.72630065  .00002146  00000-0  32123-3 0  4284
2 08314 098.3848 231.3988 0103321 245.0901 188.6128 14.72276064184526
0 DELTA 1 DEB
1 08314U 72058EG  13291.08334844  .00002243  00000-0  33534-3 0  4298
2 08314 098.3853 232.7983 0103386 240.7310 181.3101 14.72280395184724
0 DELTA 1 DEB
1 08314U 72058EG  13292.38573147  .00002076  00000-0  31089-3 0  4302
2 08314 098.3855 234.1415 0103454 236.5552 244.2787 14.72285811184917
0 DELTA 1 DEB
1 08314U 72058EG  13293.40470667  .00002153  00000-0  32212-3 0  4315
2 08314 098.3856 235.1925 0103500 233.2901 245.1276 14.72289975185064
0 DELTA 1 DEB
1 08314U 72058EG  13294.42005100  .00002471  00000-0  36827-3 0  4324
2 08314 098.3857 236.2399 0103538 230.0479 226.7396 14.72292652185219
0 DELTA 1 DEB
1 08314U 72058EG  13295.44404852  .00001913  00000-0  28701-3 0  4337
2 08314 098.3859 237.2970 0103722 226.7180 254.2768 14.72299748185361
